{
  "type": "FeatureCollection",
  "features": [
    {
      "type": "Feature",
      "properties": {
        "norad_id": 66625,
        "name": "STARLINK-35929",
        "group": "last-30-days",
        "lat": 41.34420464315055,
        "lon": 164.65054457539782,
        "alt_km": 440.7476306992776,
        "timestamp": "2025-12-26T04:40:04.509646+00:00",
        "meta_object_name": "STARLINK-35929",
        "meta_object_id": "2025-271J",
        "meta_epoch": "2025-12-25T17:31:19.322400",
        "meta_mean_motion": 15.39642972,
        "meta_eccentricity": 0.00012607,
        "meta_inclination": 53.1604,
        "meta_ra_of_asc_node": 125.5658,
        "meta_arg_of_pericenter": 46.6548,
        "meta_mean_anomaly": 313.4562,
        "meta_ephemeris_type": 0,
        "meta_classification_type": "U",
        "meta_norad_cat_id": 66625,
        "meta_element_set_no": 999,
        "meta_rev_at_epoch": 621,
        "meta_bstar": 0.0011395573,
        "meta_mean_motion_dot": 0.00045489,
        "meta_mean_motion_ddot": 0,
        "tle_line1": "1 66625U 25271J   25359.73008475  .00045489  00000+0  11396-2 0  9991",
        "tle_line2": "2 66625  53.1604 125.5658 0001260  46.6548 313.4562 15.39642972  6211"
      },
      "geometry": {
        "type": "Point",
        "coordinates": [
          164.65054457539782,
          41.34420464315055
        ]
      }
    },
    {
      "type": "Feature",
      "properties": {
        "norad_id": 66626,
        "name": "STARLINK-35902",
        "group": "last-30-days",
        "lat": -17.209444817646478,
        "lon": 110.1051862108075,
        "alt_km": 449.6893663420369,
        "timestamp": "2025-12-26T04:40:04.509656+00:00",
        "meta_object_name": "STARLINK-35902",
        "meta_object_id": "2025-271K",
        "meta_epoch": "2025-12-25T17:51:22.930560",
        "meta_mean_motion": 15.39632018,
        "meta_eccentricity": 0.00015641,
        "meta_inclination": 53.1624,
        "meta_ra_of_asc_node": 125.6545,
        "meta_arg_of_pericenter": 52.1551,
        "meta_mean_anomaly": 307.9595,
        "meta_ephemeris_type": 0,
        "meta_classification_type": "U",
        "meta_norad_cat_id": 66626,
        "meta_element_set_no": 999,
        "meta_rev_at_epoch": 621,
        "meta_bstar": 0.00062689035,
        "meta_mean_motion_dot": 0.00024767,
        "meta_mean_motion_ddot": 0,
        "tle_line1": "1 66626U 25271K   25359.74401540  .00024767  00000+0  62689-3 0  9991",
        "tle_line2": "2 66626  53.1624 125.6545 0001564  52.1551 307.9595 15.39632018  6217"
      },
      "geometry": {
        "type": "Point",
        "coordinates": [
          110.1051862108075,
          -17.209444817646478
        ]
      }
    },
    {
      "type": "Feature",
      "properties": {
        "norad_id": 66627,
        "name": "STARLINK-35904",
        "group": "last-30-days",
        "lat": 23.45215066562825,
        "lon": 142.41013634702426,
        "alt_km": 443.9825365690813,
        "timestamp": "2025-12-26T04:40:04.509666+00:00",
        "meta_object_name": "STARLINK-35904",
        "meta_object_id": "2025-271L",
        "meta_epoch": "2025-12-25T17:38:00.621888",
        "meta_mean_motion": 15.3963173,
        "meta_eccentricity": 0.00010582,
        "meta_inclination": 53.1598,
        "meta_ra_of_asc_node": 125.5969,
        "meta_arg_of_pericenter": 72.2559,
        "meta_mean_anomaly": 287.8562,
        "meta_ephemeris_type": 0,
        "meta_classification_type": "U",
        "meta_norad_cat_id": 66627,
        "meta_element_set_no": 999,
        "meta_rev_at_epoch": 617,
        "meta_bstar": 0.0010231914,
        "meta_mean_motion_dot": 0.00040762,
        "meta_mean_motion_ddot": 0,
        "tle_line1": "1 66627U 25271L   25359.73472942  .00040762  00000+0  10232-2 0  9994",
        "tle_line2": "2 66627  53.1598 125.5969 0001058  72.2559 287.8562 15.39631730  6171"
      },
      "geometry": {
        "type": "Point",
        "coordinates": [
          142.41013634702426,
          23.45215066562825
        ]
      }
    },
    {
      "type": "Feature",
      "properties": {
        "norad_id": 66628,
        "name": "STARLINK-35862",
        "group": "last-30-days",
        "lat": 15.438264541119752,
        "lon": -68.77982643726888,
        "alt_km": 445.81409112431356,
        "timestamp": "2025-12-26T04:40:04.509676+00:00",
        "meta_object_name": "STARLINK-35862",
        "meta_object_id": "2025-271M",
        "meta_epoch": "2025-12-25T22:00:01.999584",
        "meta_mean_motion": 15.3959539,
        "meta_eccentricity": 0.00011615,
        "meta_inclination": 53.1595,
        "meta_ra_of_asc_node": 124.479,
        "meta_arg_of_pericenter": 79.6071,
        "meta_mean_anomaly": 340.2231,
        "meta_ephemeris_type": 0,
        "meta_classification_type": "U",
        "meta_norad_cat_id": 66628,
        "meta_element_set_no": 999,
        "meta_rev_at_epoch": 612,
        "meta_bstar": 0.00059317469,
        "meta_mean_motion_dot": 0.0002338,
        "meta_mean_motion_ddot": 0,
        "tle_line1": "1 66628U 25271M   25359.91668981  .00023380  00000+0  59317-3 0  9990",
        "tle_line2": "2 66628  53.1595 124.4790 0001161  79.6071 340.2231 15.39595390  6127"
      },
      "geometry": {
        "type": "Point",
        "coordinates": [
          -68.77982643726888,
          15.438264541119752
        ]
      }
    },
    {
      "type": "Feature",
      "properties": {
        "norad_id": 66629,
        "name": "STARLINK-35956",
        "group": "last-30-days",
        "lat": 50.36943392740982,
        "lon": -172.54906860598223,
        "alt_km": 387.07842691461065,
        "timestamp": "2025-12-26T04:40:04.509686+00:00",
        "meta_object_name": "STARLINK-35956",
        "meta_object_id": "2025-271N",
        "meta_epoch": "2025-12-25T20:38:38.832288",
        "meta_mean_motion": 15.56042213,
        "meta_eccentricity": 0.00093207,
        "meta_inclination": 53.1722,
        "meta_ra_of_asc_node": 124.2596,
        "meta_arg_of_pericenter": 28.9252,
        "meta_mean_anomaly": 331.2275,
        "meta_ephemeris_type": 0,
        "meta_classification_type": "U",
        "meta_norad_cat_id": 66629,
        "meta_element_set_no": 999,
        "meta_rev_at_epoch": 110,
        "meta_bstar": 0.0058628449,
        "meta_mean_motion_dot": 0.00439507,
        "meta_mean_motion_ddot": 0,
        "tle_line1": "1 66629U 25271N   25359.86017167  .00439507  00000+0  58628-2 0  9994",
        "tle_line2": "2 66629  53.1722 124.2596 0009320  28.9252 331.2275 15.56042213  1106"
      },
      "geometry": {
        "type": "Point",
        "coordinates": [
          -172.54906860598223,
          50.36943392740982
        ]
      }
    },
    {
      "type": "Feature",
      "properties": {
        "norad_id": 66630,
        "name": "STARLINK-35949",
        "group": "last-30-days",
        "lat": -3.5365027027661076,
        "lon": -54.22358125092567,
        "alt_km": 448.7751262870197,
        "timestamp": "2025-12-26T04:40:04.509696+00:00",
        "meta_object_name": "STARLINK-35949",
        "meta_object_id": "2025-271P",
        "meta_epoch": "2025-12-25T22:00:01.999584",
        "meta_mean_motion": 15.39612808,
        "meta_eccentricity": 4.005e-05,
        "meta_inclination": 53.1599,
        "meta_ra_of_asc_node": 124.4301,
        "meta_arg_of_pericenter": 42.2904,
        "meta_mean_anomaly": 41.3778,
        "meta_ephemeris_type": 0,
        "meta_classification_type": "U",
        "meta_norad_cat_id": 66630,
        "meta_element_set_no": 999,
        "meta_rev_at_epoch": 609,
        "meta_bstar": 0.00065700681,
        "meta_mean_motion_dot": 0.00025964,
        "meta_mean_motion_ddot": 0,
        "tle_line1": "1 66630U 25271P   25359.91668981  .00025964  00000+0  65701-3 0  9997",
        "tle_line2": "2 66630  53.1599 124.4301 0000400  42.2904  41.3778 15.39612808  6093"
      },
      "geometry": {
        "type": "Point",
        "coordinates": [
          -54.22358125092567,
          -3.5365027027661076
        ]
      }
    },
    {
      "type": "Feature",
      "properties": {
        "norad_id": 66631,
        "name": "STARLINK-35965",
        "group": "last-30-days",
        "lat": -5.045969424790234,
        "lon": -53.08668339497017,
        "alt_km": 448.90402424805234,
        "timestamp": "2025-12-26T04:40:04.509710+00:00",
        "meta_object_name": "STARLINK-35965",
        "meta_object_id": "2025-271Q",
        "meta_epoch": "2025-12-25T22:00:01.999584",
        "meta_mean_motion": 15.39599496,
        "meta_eccentricity": 8.902e-05,
        "meta_inclination": 53.1596,
        "meta_ra_of_asc_node": 124.427,
        "meta_arg_of_pericenter": 83.9225,
        "meta_mean_anomaly": 1.6413,
        "meta_ephemeris_type": 0,
        "meta_classification_type": "U",
        "meta_norad_cat_id": 66631,
        "meta_element_set_no": 999,
        "meta_rev_at_epoch": 612,
        "meta_bstar": 0.00068112386,
        "meta_mean_motion_dot": 0.00026923,
        "meta_mean_motion_ddot": 0,
        "tle_line1": "1 66631U 25271Q   25359.91668981  .00026923  00000+0  68112-3 0  9993",
        "tle_line2": "2 66631  53.1596 124.4270 0000890  83.9225   1.6413 15.39599496  6123"
      },
      "geometry": {
        "type": "Point",
        "coordinates": [
          -53.08668339497017,
          -5.045969424790234
        ]
      }
    }
  ]
}